FENGYUN 1C DEB          
1 31726U 99025CDZ 17345.32636955  .00000523  00000-0  27443-3 0  9996
2 31726  99.0471  25.6377 0257304 272.1908 145.3863 14.02984747229785
